[{"OBJECT_NAME":"STARLINK-5919","OBJECT_ID":"2023-037P","EPOCH":"2026-03-09T21:53:55.511520","MEAN_MOTION":14.9830823,"ECCENTRICITY":0.00026639,"INCLINATION":70.0036,"RA_OF_ASC_NODE":303.7784,"ARG_OF_PERICENTER":210.5626,"MEAN_ANOMALY":149.5378,"EPHEMERIS_TYPE":0,"CLASSIFICATION_TYPE":"U","NORAD_CAT_ID":55927,"ELEMENT_SET_NO":999,"REV_AT_EPOCH":16352,"BSTAR":-4.2850414e-5,"MEAN_MOTION_DOT":-6.04e-6,"MEAN_MOTION_DDOT":0},{"OBJECT_NAME":"ICEYE-X33","OBJECT_ID":"2024-149CJ","EPOCH":"2026-03-09T17:04:13.303776","MEAN_MOTION":15.0113344,"ECCENTRICITY":0.00060627,"INCLINATION":97.7033,"RA_OF_ASC_NODE":148.5516,"ARG_OF_PERICENTER":122.8099,"MEAN_ANOMALY":237.371,"EPHEMERIS_TYPE":0,"CLASSIFICATION_TYPE":"U","NORAD_CAT_ID":60548,"ELEMENT_SET_NO":999,"REV_AT_EPOCH":8528,"BSTAR":0.00045891369,"MEAN_MOTION_DOT":5.822e-5,"MEAN_MOTION_DDOT":0}]
